CHUANGXIN 1-02 (CX-1-02)
1 33434U 08056B   26197.61174961  .00000197  00000+0  93054-4 0  9997
2 33434  98.6122 223.5840 0015354  56.5157 303.7490 14.30159430922827
STARS (KUKAI)           
1 33498U 09002G   26197.38428154  .00001712  00000+0  15844-3 0  9993
2 33498  98.1553 145.8900 0009829  76.5948 283.6367 14.95929759942846
KKS-1 (KISEKI)          
1 33499U 09002H   26197.60369363  .00000565  00000+0  76065-4 0  9993
2 33499  98.1173 120.5120 0007554 184.0960 176.0193 14.83191013940550
UK-DMC 2                
1 35683U 09041C   26197.64603515  .00000095  00000+0  20936-4 0  9991
2 35683  97.8873 331.8982 0001569 100.1454 259.9933 14.76094155910911
OCEANSAT-2              
1 35931U 09051A   26197.58033686 -.00000053  00000+0 -10853-4 0  9990
2 35931  98.2321 181.4972 0017434 149.5033 210.7152 13.99655944883444
SWISSCUBE               
1 35932U 09051B   26197.17712107  .00000443  00000+0  97133-4 0  9995
2 35932  98.4006 105.5678 0007887 116.4429 243.7582 14.62531689893398
BEESAT-1                
1 35933U 09051C   26197.27017215  .00000367  00000+0  83467-4 0  9995
2 35933  98.3933 105.2367 0006190 126.9816 233.1952 14.61762755893439
ITUPSAT1                
1 35935U 09051E   26197.21805450  .00000338  00000+0  79710-4 0  9991
2 35935  98.4016 104.3446 0008155 140.2213 219.9586 14.60479538892971
DMSP 5D-3 F18 (USA 210) 
1 35951U 09057A   26197.62949068  .00000168  00000+0  10995-3 0  9994
2 35951  98.9057 178.3375 0011314 161.4918 198.6669 14.14912259863759
PROBA-2                 
1 36037U 09059B   26197.46999519  .00000054  00000+0  23025-4 0  9993
2 36037  98.2459  20.4183 0013098 184.7375 175.3700 14.54873910885783
YAOGAN-7                
1 36110U 09069A   26197.26695503  .00000184  00000+0  32771-4 0  9992
2 36110  98.0031  82.9494 0023443 307.7241  52.1845 14.78036020893927
XIWANG-1 (HOPE-1)       
1 36122U 09072B   26197.57953946 -.00000303  00000+0 -67834-3 0  9993
2 36122 100.4039 150.9444 0007578 161.7426 198.3960 13.16439199796873
COSMOS 2463             
1 36519U 10017A   26197.53458956  .00000030  00000+0  16692-4 0  9993
2 36519  82.9581 228.1430 0037235  50.2986 112.4650 13.71667255811955
CARTOSAT-2B             
1 36795U 10035A   26197.57351801  .00000695  00000+0  10190-3 0  9997
2 36795  97.9937 247.9326 0012734  95.7902 264.4761 14.78653335864191
TISAT 1                 
1 36799U 10035E   26197.37356152  .00010605  00000+0  33782-3 0  9997
2 36799  98.0716 146.5388 0004580 117.8384 242.3321 15.32758593872171
YAOGAN-10               
1 36834U 10038A   26197.66896348  .00000990  00000+0  12110-3 0  9996
2 36834  97.8965 220.8384 0001688  80.8998  58.7456 14.85433385861589
SHIJIAN-6 04B (SJ-6 04B)
1 37180U 10051B   26197.58730179 -.00000283  00000+0 -18064-4 0  9998
2 37180  97.8728 203.3125 0007823 207.7552 152.3254 14.99382324860085
FENGYUN 3B              
1 37214U 10059A   26197.59927882 -.00000028  00000+0  85705-5 0  9997
2 37214  98.9603 243.7362 0023182 102.6212  50.3613 14.14846788811583
COSMO-SKYMED 4          
1 37216U 10060A   26197.60830500  .00000664  00000+0  89956-4 0  9999
2 37216  97.8887  20.7821 0001517  87.4849 272.6538 14.82150952848923
O/OREOS (USA 219)       
1 37224U 10062C   26197.46070884  .00000980  00000+0  98139-4 0  9999
2 37224  71.9698  14.0214 0014031   2.6006 357.5235 14.93854221121019
RESOURCESAT-2           
1 37387U 11015A   26197.57942421  .00000021  00000+0  29958-4 0  9994
2 37387  98.7632 264.8160 0011632 167.2076 192.9398 14.21599715790353
YOUTHSAT                
1 37388U 11015B   26197.50328214  .00000067  00000+0  45865-4 0  9991
2 37388  98.3703 170.2388 0013191 255.0308 216.8597 14.25640905791818
APRIZESAT 6             
1 37793U 11044F   26197.28902138  .00000336  00000+0  55005-4 0  9997
2 37793  98.2336 108.3804 0042959 354.7759 121.7132 14.76957659801448
JUGNU                   
1 37839U 11058B   26197.17767124  .00000337  00000+0  36708-4 0  9995
2 37839  19.9596 132.2939 0018592  37.2294  97.4128 14.13783599763133
SRMSAT                  
1 37841U 11058D   26197.50190566  .00000328  00000+0  34086-4 0  9992
2 37841  19.9708 242.0370 0011713 165.5426 335.9764 14.11581255761968
